start=new Date('2022-11-03T00:00:00.000Z').valueOf();
sats=[{"MEAN_MOTION_DDOT":"0.0000000000000","INCLINATION":"53.2153","CLASSIFICATION_TYPE":"U","CENTER_NAME":"EARTH","REF_FRAME":"TEME","MEAN_ELEMENT_THEORY":"SGP4","EPHEMERIS_TYPE":"0","PERIAPSIS":"348.193","RCS_SIZE":"LARGE","OBJECT_NAME":"STARLINK-5041","NORAD_CAT_ID":"53891","EPOCH":"2022-11-02T22:00:00.999936","OBJECT_ID":"2022-119F","MEAN_ANOMALY":"218.3565","OBJECT_TYPE":"PAYLOAD","SEMIMAJOR_AXIS":"6727.829","COUNTRY_CODE":"US","APOAPSIS":"351.196","LAUNCH_DATE":"2022-09-24","TIME_SYSTEM":"UTC","TLE_LINE2":"2 53891  53.2153  60.2470 0002232  19.5295 218.3565 15.73223062  1301","ARG_OF_PERICENTER":"19.5295","TLE_LINE1":"1 53891U 22119F   22306.91667824  .00047493  00000-0  34054-3 0  9993","BSTAR":"0.00034054000000","ECCENTRICITY":"0.00022320","SITE":"AFETR","GP_ID":"216793178","MEAN_MOTION":"15.73223062","PERIOD":"91.532","DECAY_DATE":null,"ELEMENT_SET_NO":"999","REV_AT_EPOCH":"130","RA_OF_ASC_NODE":"60.2470","MEAN_MOTION_DOT":"0.00047493","FILE":"3643025"},{"LAUNCH_DATE":"2022-09-24","TIME_SYSTEM":"UTC","TLE_LINE2":"2 53892  53.2153  60.2458 0004319   3.3690 237.5059 15.73201734  1309","ARG_OF_PERICENTER":"3.3690","COUNTRY_CODE":"US","APOAPSIS":"352.661","OBJECT_TYPE":"PAYLOAD","SEMIMAJOR_AXIS":"6727.890","EPOCH":"2022-11-02T22:00:00.999936","OBJECT_ID":"2022-119G","MEAN_ANOMALY":"237.5059","OBJECT_NAME":"STARLINK-5046","NORAD_CAT_ID":"53892","MEAN_ELEMENT_THEORY":"SGP4","EPHEMERIS_TYPE":"0","PERIAPSIS":"346.849","RCS_SIZE":"LARGE","CENTER_NAME":"EARTH","REF_FRAME":"TEME","INCLINATION":"53.2153","MEAN_MOTION_DDOT":"0.0000000000000","CLASSIFICATION_TYPE":"U","FILE":"3643025","MEAN_MOTION_DOT":"0.00052577","RA_OF_ASC_NODE":"60.2458","ELEMENT_SET_NO":"999","REV_AT_EPOCH":"130","DECAY_DATE":null,"MEAN_MOTION":"15.73201734","PERIOD":"91.533","GP_ID":"216792679","TLE_LINE1":"1 53892U 22119G   22306.91667824  .00052577  00000-0  37652-3 0  9990","ECCENTRICITY":"0.00043190","BSTAR":"0.00037652000000","SITE":"AFETR"},{"APOAPSIS":"350.396","COUNTRY_CODE":"US","TIME_SYSTEM":"UTC","LAUNCH_DATE":"2022-09-24","TLE_LINE2":"2 53893  53.2156  60.2314 0001597  49.1957 190.6205 15.73353915  1304","ARG_OF_PERICENTER":"49.1957","EPOCH":"2022-11-02T22:00:00.999936","MEAN_ANOMALY":"190.6205","OBJECT_ID":"2022-119H","OBJECT_TYPE":"PAYLOAD","SEMIMAJOR_AXIS":"6727.456","EPHEMERIS_TYPE":"0","MEAN_ELEMENT_THEORY":"SGP4","PERIAPSIS":"348.247","RCS_SIZE":"LARGE","OBJECT_NAME":"STARLINK-5052","NORAD_CAT_ID":"53893","CLASSIFICATION_TYPE":"U","INCLINATION":"53.2156","MEAN_MOTION_DDOT":"0.0000000000000","REF_FRAME":"TEME","CENTER_NAME":"EARTH","FILE":"3643025","ELEMENT_SET_NO":"999","REV_AT_EPOCH":"130","MEAN_MOTION_DOT":"-0.00408676","RA_OF_ASC_NODE":"60.2314","PERIOD":"91.524","MEAN_MOTION":"15.73353915","DECAY_DATE":null,"ECCENTRICITY":"0.00015970","BSTAR":"-0.00303080000000","TLE_LINE1":"1 53893U 22119H   22306.91667824 -.00408676  00000-0 -30308-2 0  9998","SITE":"AFETR","GP_ID":"216793263"},{"LAUNCH_DATE":"2022-09-24","TIME_SYSTEM":"UTC","ARG_OF_PERICENTER":"21.6933","TLE_LINE2":"2 53894  53.2153  60.2445 0002331  21.6933 216.9591 15.73243082  1306","APOAPSIS":"351.206","COUNTRY_CODE":"US","OBJECT_TYPE":"PAYLOAD","SEMIMAJOR_AXIS":"6727.772","EPOCH":"2022-11-02T22:00:00.999936","MEAN_ANOMALY":"216.9591","OBJECT_ID":"2022-119J","OBJECT_NAME":"STARLINK-5043","NORAD_CAT_ID":"53894","EPHEMERIS_TYPE":"0","MEAN_ELEMENT_THEORY":"SGP4","PERIAPSIS":"348.069","RCS_SIZE":"LARGE","REF_FRAME":"TEME","CENTER_NAME":"EARTH","CLASSIFICATION_TYPE":"U","INCLINATION":"53.2153","MEAN_MOTION_DDOT":"0.0000000000000","FILE":"3643025","RA_OF_ASC_NODE":"60.2445","MEAN_MOTION_DOT":"-0.00066074","ELEMENT_SET_NO":"999","REV_AT_EPOCH":"130","DECAY_DATE":null,"PERIOD":"91.531","MEAN_MOTION":"15.73243082","GP_ID":"216792428","ECCENTRICITY":"0.00023310","BSTAR":"-0.00046911000000","TLE_LINE1":"1 53894U 22119J   22306.91667824 -.00066074  00000-0 -46911-3 0  9999","SITE":"AFETR"},{"COUNTRY_CODE":"US","APOAPSIS":"351.321","TLE_LINE2":"2 53895  53.2149  60.2417 0002374  22.6676 217.6071 15.73212872  1307","ARG_OF_PERICENTER":"22.6676","LAUNCH_DATE":"2022-09-24","TIME_SYSTEM":"UTC","OBJECT_ID":"2022-119K","MEAN_ANOMALY":"217.6071","EPOCH":"2022-11-02T22:00:00.999936","SEMIMAJOR_AXIS":"6727.858","OBJECT_TYPE":"PAYLOAD","PERIAPSIS":"348.126","RCS_SIZE":"LARGE","MEAN_ELEMENT_THEORY":"SGP4","EPHEMERIS_TYPE":"0","NORAD_CAT_ID":"53895","OBJECT_NAME":"STARLINK-5032","MEAN_MOTION_DDOT":"0.0000000000000","INCLINATION":"53.2149","CLASSIFICATION_TYPE":"U","CENTER_NAME":"EARTH","REF_FRAME":"TEME","FILE":"3643025","REV_AT_EPOCH":"130","ELEMENT_SET_NO":"999","RA_OF_ASC_NODE":"60.2417","MEAN_MOTION_DOT":"0.00046569","MEAN_MOTION":"15.73212872","PERIOD":"91.532","DECAY_DATE":null,"SITE":"AFETR","TLE_LINE1":"1 53895U 22119K   22306.91667824  .00046569  00000-0  33418-3 0  9993","BSTAR":"0.00033418000000","ECCENTRICITY":"0.00023740","GP_ID":"216793429"},{"GP_ID":"216792262","SITE":"AFETR","ECCENTRICITY":"0.00042780","BSTAR":"-0.00007389000000","TLE_LINE1":"1 53896U 22119L   22306.91667824 -.00011002  00000-0 -73890-4 0  9999","DECAY_DATE":null,"PERIOD":"91.531","MEAN_MOTION":"15.73233043","MEAN_MOTION_DOT":"-0.00011002","RA_OF_ASC_NODE":"60.2431","REV_AT_EPOCH":"130","ELEMENT_SET_NO":"999","FILE":"3643025","REF_FRAME":"TEME","CENTER_NAME":"EARTH","CLASSIFICATION_TYPE":"U","INCLINATION":"53.2161","MEAN_MOTION_DDOT":"0.0000000000000","NORAD_CAT_ID":"53896","OBJECT_NAME":"STARLINK-5037","PERIAPSIS":"346.788","RCS_SIZE":"LARGE","EPHEMERIS_TYPE":"0","MEAN_ELEMENT_THEORY":"SGP4","SEMIMAJOR_AXIS":"6727.801","OBJECT_TYPE":"PAYLOAD","MEAN_ANOMALY":"237.9676","OBJECT_ID":"2022-119L","EPOCH":"2022-11-02T22:00:00.999936","TLE_LINE2":"2 53896  53.2161  60.2431 0004278   3.5663 237.9676 15.73233043  1306","ARG_OF_PERICENTER":"3.5663","LAUNCH_DATE":"2022-09-24","TIME_SYSTEM":"UTC","APOAPSIS":"352.544","COUNTRY_CODE":"US"},{"GP_ID":"216793013","BSTAR":"0.00037991000000","ECCENTRICITY":"0.00016630","TLE_LINE1":"1 53897U 22119M   22306.91667824  .00053011  00000-0  37991-3 0  9995","SITE":"AFETR","DECAY_DATE":null,"PERIOD":"91.534","MEAN_MOTION":"15.73189435","RA_OF_ASC_NODE":"60.2457","MEAN_MOTION_DOT":"0.00053011","ELEMENT_SET_NO":"999","REV_AT_EPOCH":"130","FILE":"3643025","REF_FRAME":"TEME","CENTER_NAME":"EARTH","CLASSIFICATION_TYPE":"U","MEAN_MOTION_DDOT":"0.0000000000000","INCLINATION":"53.2158","OBJECT_NAME":"STARLINK-5035","NORAD_CAT_ID":"53897","EPHEMERIS_TYPE":"0","MEAN_ELEMENT_THEORY":"SGP4","PERIAPSIS":"348.671","RCS_SIZE":"LARGE","OBJECT_TYPE":"PAYLOAD","SEMIMAJOR_AXIS":"6727.925","EPOCH":"2022-11-02T22:00:00.999936","MEAN_ANOMALY":"198.1047","OBJECT_ID":"2022-119M","TIME_SYSTEM":"UTC","LAUNCH_DATE":"2022-09-24","TLE_LINE2":"2 53897  53.2158  60.2457 0001663  41.0096 198.1047 15.73189435  1308","ARG_OF_PERICENTER":"41.0096","APOAPSIS":"350.909","COUNTRY_CODE":"US"},{"FILE":"3643025","RA_OF_ASC_NODE":"60.2396","MEAN_MOTION_DOT":"-0.00015049","ELEMENT_SET_NO":"999","REV_AT_EPOCH":"130","DECAY_DATE":null,"PERIOD":"91.530","MEAN_MOTION":"15.73253690","GP_ID":"216792846","BSTAR":"-0.00010270000000","ECCENTRICITY":"0.00032550","TLE_LINE1":"1 53898U 22119N   22306.91667824 -.00015049  00000-0 -10270-3 0  9998","SITE":"AFETR","LAUNCH_DATE":"2022-09-24","TIME_SYSTEM":"UTC","TLE_LINE2":"2 53898  53.2156  60.2396 0003255   6.9251 236.3588 15.73253690  1301","ARG_OF_PERICENTER":"6.9251","APOAPSIS":"351.797","COUNTRY_CODE":"US","OBJECT_TYPE":"PAYLOAD","SEMIMAJOR_AXIS":"6727.742","EPOCH":"2022-11-02T22:00:00.999936","MEAN_ANOMALY":"236.3588","OBJECT_ID":"2022-119N","OBJECT_NAME":"STARLINK-5044","NORAD_CAT_ID":"53898","EPHEMERIS_TYPE":"0","MEAN_ELEMENT_THEORY":"SGP4","RCS_SIZE":"LARGE","PERIAPSIS":"347.417","REF_FRAME":"TEME","CENTER_NAME":"EARTH","CLASSIFICATION_TYPE":"U","MEAN_MOTION_DDOT":"0.0000000000000","INCLINATION":"53.2156"},{"LAUNCH_DATE":"2022-09-24","TIME_SYSTEM":"UTC","ARG_OF_PERICENTER":"9.4761","TLE_LINE2":"2 53899  53.2158  60.2415 0003055   9.4761 233.2048 15.73237663  1307","APOAPSIS":"351.708","COUNTRY_CODE":"US","OBJECT_TYPE":"PAYLOAD","SEMIMAJOR_AXIS":"6727.788","EPOCH":"2022-11-02T22:00:00.999936","MEAN_ANOMALY":"233.2048","OBJECT_ID":"2022-119P","OBJECT_NAME":"STARLINK-5042","NORAD_CAT_ID":"53899","EPHEMERIS_TYPE":"0","MEAN_ELEMENT_THEORY":"SGP4","PERIAPSIS":"347.597","RCS_SIZE":"LARGE","REF_FRAME":"TEME","CENTER_NAME":"EARTH","CLASSIFICATION_TYPE":"U","MEAN_MOTION_DDOT":"0.0000000000000","INCLINATION":"53.2158","FILE":"3643025","RA_OF_ASC_NODE":"60.2415","MEAN_MOTION_DOT":"-0.00002061","ELEMENT_SET_NO":"999","REV_AT_EPOCH":"130","DECAY_DATE":null,"PERIOD":"91.531","MEAN_MOTION":"15.73237663","GP_ID":"216793179","ECCENTRICITY":"0.00030550","BSTAR":"-0.00001023000000","TLE_LINE1":"1 53899U 22119P   22306.91667824 -.00002061  00000-0 -10230-4 0  9996","SITE":"AFETR"},{"CLASSIFICATION_TYPE":"U","MEAN_MOTION_DDOT":"0.0000000000000","INCLINATION":"53.2163","REF_FRAME":"TEME","CENTER_NAME":"EARTH","EPHEMERIS_TYPE":"0","MEAN_ELEMENT_THEORY":"SGP4","PERIAPSIS":"347.320","RCS_SIZE":"LARGE","OBJECT_NAME":"STARLINK-5045","NORAD_CAT_ID":"53900","EPOCH":"2022-11-02T22:00:00.999936","MEAN_ANOMALY":"234.9269","OBJECT_ID":"2022-119Q","OBJECT_TYPE":"PAYLOAD","SEMIMAJOR_AXIS":"6727.865","APOAPSIS":"352.139","COUNTRY_CODE":"US","LAUNCH_DATE":"2022-09-24","TIME_SYSTEM":"UTC","TLE_LINE2":"2 53900  53.2163  60.2377 0003581   9.5033 234.9269 15.73210731  1300","ARG_OF_PERICENTER":"9.5033","ECCENTRICITY":"0.00035810","BSTAR":"0.00033592000000","TLE_LINE1":"1 53900U 22119Q   22306.91667824  .00046820  00000-0  33592-3 0  9993","SITE":"AFETR","GP_ID":"216792680","PERIOD":"91.533","MEAN_MOTION":"15.73210731","DECAY_DATE":null,"ELEMENT_SET_NO":"999","REV_AT_EPOCH":"130","RA_OF_ASC_NODE":"60.2377","MEAN_MOTION_DOT":"0.00046820","FILE":"3643025"}];
